0 COSMOS 2471 (GLONASS)
1 37372U 11009A   13281.61442491  .00000067  00000-0  10000-3 0  7792
2 37372 064.8900 110.2736 0005229 221.8476 144.7423 02.13112759 20344
0 COSMOS 2471 (GLONASS)
1 37372U 11009A   13281.68193399  .00000067  00000-0  10000-3 0  7801
2 37372 064.8903 110.2705 0005215 223.3146 195.0444 02.13111224 20347
0 COSMOS 2471 (GLONASS)
1 37372U 11009A   13283.32865706  .00000069  00000-0  10000-3 0  7815
2 37372 064.8906 110.2145 0005234 222.9722 018.7568 02.13111321 20373
0 COSMOS 2471 (GLONASS)
1 37372U 11009A   13283.48281234 -.00000030  00000-0  10000-3 0  7820
2 37372 064.8919 110.2101 0005354 220.0853 139.9320 02.13111552 20385
0 COSMOS 2471 (GLONASS)
1 37372U 11009A   13285.78071405  .00000084  00000-0  10000-3 0  7831
2 37372 064.8915 110.1318 0005287 222.4030 100.5508 02.13111489 20424
0 COSMOS 2471 (GLONASS)
1 37372U 11009A   13287.11234731  .00000089  00000-0  10000-3 0  7849
2 37372 064.8916 110.0869 0005292 222.3073 042.2788 02.13111554 20455
0 COSMOS 2471 (GLONASS)
1 37372U 11009A   13288.33326554  .00000087  00000-0  10000-3 0  7858
2 37372 064.8923 110.0457 0005322 221.4860 259.7928 02.13111662 20488
0 COSMOS 2471 (GLONASS)
1 37372U 11009A   13289.64363830  .00000076  00000-0  10000-3 0  7860
2 37372 064.8926 110.0014 0005282 221.4278 185.1761 02.13111785 20515
0 COSMOS 2471 (GLONASS)
1 37372U 11009A   13290.52135832 -.00000030  00000-0  10000-3 0  7881
2 37372 064.8937 109.9716 0005327 220.4137 139.5979 02.13111850 20535
0 COSMOS 2471 (GLONASS)
1 37372U 11009A   13291.16639112  .00000058  00000-0  10000-3 0  7870
2 37372 064.8929 109.9502 0005368 221.1494 273.7163 02.13111883 20541
0 COSMOS 2471 (GLONASS)
1 37372U 11009A   13292.20314138  .00000045  00000-0  10000-3 0  7881
2 37372 064.8932 109.9150 0005369 221.0238 349.2404 02.13111947 20560
0 COSMOS 2471 (GLONASS)
1 37372U 11009A   13293.27245854  .00000037  00000-0  10000-3 0  7899
2 37372 064.8935 109.8789 0005358 221.2033 089.4447 02.13112002 20588
0 COSMOS 2471 (GLONASS)
1 37372U 11009A   13294.88393008  .00000034  00000-0  10000-3 0  7901
2 37372 064.8938 109.8239 0005383 221.9370 245.0495 02.13112637 20622
